{"spkid": "20618350", "covariance": {"epoch": "2459937.5", "elements": [{"label": "e", "units": null, "title": "eccentricity", "value": ".4734241551116541", "sigma": 1.12022884795966e-08, "name": "e"}, {"label": "q", "units": "au", "value": ".8182080916014117", "title": "perihelion distance", "name": "q", "sigma": 1.85471711351064e-08}, {"sigma": 3.50729400322792e-06, "name": "tp", "title": "time of perihelion passage", "value": "2460094.448897143061", "units": "TDB", "label": "tp"}, {"units": "deg", "title": "longitude of the ascending node", "value": "163.3814159603282", "name": "om", "sigma": 8.55029177187538e-06, "label": "node"}, {"title": "argument of perihelion", "value": "78.86713797746", "units": "deg", "sigma": 9.45956056809641e-06, "name": "w", "label": "peri"}, {"units": "deg", "title": "inclination", "value": "7.925836922423122", "sigma": 3.27426078311791e-06, "name": "i", "label": "i"}], "data": [["1.254912671801018E-16", "-2.07181577332428E-16", "1.77089577432943E-15", "2.743836977621747E-15", "2.892958115713952E-15", "-2.368960085242651E-15"], ["-2.07181577332428E-16", "3.439975571149258E-16", "-2.291932423953191E-15", "-9.555991054029216E-15", "1.238998811629444E-15", "3.823174307551751E-15"], ["1.77089577432943E-15", "-2.291932423953191E-15", "1.23011112250785E-11", "-8.533953766746929E-12", "1.717203042089179E-11", "4.068167240213451E-12"], ["2.743836977621747E-15", "-9.555991054029216E-15", "-8.533953766746929E-12", "7.310748938419988E-11", "-7.725276684607126E-11", "-8.651291080390935E-12"], ["2.892958115713952E-15", "1.238998811629444E-15", "1.717203042089179E-11", "-7.725276684607126E-11", "8.948328614148457E-11", "9.842917142118738E-12"], ["-2.368960085242651E-15", "3.823174307551751E-15", "4.068167240213451E-12", "-8.651291080390935E-12", "9.842917142118738E-12", "1.07207836758639E-11"]], "labels": ["e", "q", "tp", "node", "peri", "i"]}, "elements": [{"label": "e", "sigma": "1.1245E-8", "name": "e", "units": null, "value": ".473691277158949", "title": "eccentricity"}, {"units": "au", "value": "1.55461377279929", "title": "semi-major axis", "sigma": "3.0811E-9", "name": "a", "label": "a"}, {"name": "q", "sigma": "1.8536E-8", "units": "au", "value": ".8182067892731024", "title": "perihelion distance", "label": "q"}, {"label": "i", "name": "i", "sigma": "3.2757E-6", "value": "7.917489007321344", "title": "inclination; angle with respect to x-y ecliptic plane", "units": "deg"}, {"sigma": "8.5521E-6", "name": "om", "title": "longitude of the ascending node", "value": "163.2554085146063", "units": "deg", "label": "node"}, {"sigma": "9.4789E-6", "name": "w", "units": "deg", "value": "79.012169370", "title": "argument of perihelion", "label": "peri"}, {"label": "M", "units": "deg", "value": "202.5338550630701", "title": "mean anomaly", "sigma": "2.5351E-6", "name": "ma"}, {"label": "tp", "title": "time of perihelion passage", "value": "2461510.182659370207", "units": "TDB", "sigma": "5.6302E-6", "name": "tp"}, {"label": "period", "title": "sidereal orbital period", "value": "707.9982647567083", "units": "d", "sigma": "2.1047E-6", "name": "per"}, {"sigma": "1.5116E-9", "name": "n", "title": "mean motion", "value": ".5084758224989547", "units": "deg/d", "label": "n"}, {"units": "au", "value": "2.291020756325478", "title": "aphelion distance", "name": "ad", "sigma": "4.5405E-9", "label": "Q"}], "epoch": "2461200.5"}